GLOBALSTAR M024         
1 25883U 99043A   25303.53029080 -.00000068  00000+0 -12003-3 0  9995
2 25883  52.0019  75.2356 0000701 356.7913  81.9788 11.10170786129897
GLOBALSTAR M027         
1 25884U 99043B   25303.90258225 -.00000087  00000+0 -89851-3 0  9998
2 25884  52.0177 156.2279 0020673 208.4363 151.5303 11.04372761156234
GLOBALSTAR M054         
1 25885U 99043C   25303.85360668 -.00000025  00000+0  11801-2 0  9998
2 25885  52.0134 260.8687 0005679  48.6243 331.8238 11.39222073134518
GLOBALSTAR M053         
1 25886U 99043D   25303.68011951 -.00000057  00000+0  32420-3 0  9994
2 25886  51.9971 215.8969 0003347 329.3590  34.2545 11.27668049134736
GLOBALSTAR M058         
1 25907U 99049A   25303.68175308 -.00000058  00000+0  35254-3 0  9990
2 25907  51.9913 107.3643 0002395 151.5466 208.5499 11.93203662557719
GLOBALSTAR M050         
1 25908U 99049B   25303.82765913 -.00000121  00000+0 -36952-3 0  9992
2 25908  51.9967 104.5170 0008130 304.8370 195.9882 12.07460142164570
GLOBALSTAR M033         
1 25909U 99049C   25303.25459369 -.00000139  00000+0 -45931-3 0  9991
2 25909  51.9932 328.5952 0013908 182.0326 178.0467 12.20292631552231
GLOBALSTAR M055         
1 25910U 99049D   25303.37791142 -.00000068  00000+0  22609-3 0  9991
2 25910  52.0034 332.4141 0007160  53.9484 306.2031 12.29434581184915
